[{"OBJECT_NAME":"TIANMU-1 22","OBJECT_ID":"2023-208D","EPOCH":"2026-03-09T22:39:05.738688","MEAN_MOTION":15.29457749,"ECCENTRICITY":0.00031332,"INCLINATION":97.4379,"RA_OF_ASC_NODE":184.9419,"ARG_OF_PERICENTER":351.9312,"MEAN_ANOMALY":8.1877,"EPHEMERIS_TYPE":0,"CLASSIFICATION_TYPE":"U","NORAD_CAT_ID":58663,"ELEMENT_SET_NO":999,"REV_AT_EPOCH":12215,"BSTAR":0.00038239675,"MEAN_MOTION_DOT":0.00010851,"MEAN_MOTION_DDOT":0},{"OBJECT_NAME":"STARLINK-32499","OBJECT_ID":"2024-210A","EPOCH":"2026-03-08T09:00:46.484064","MEAN_MOTION":15.27620371,"ECCENTRICITY":0.00030926,"INCLINATION":43.0084,"RA_OF_ASC_NODE":186.8514,"ARG_OF_PERICENTER":269.5015,"MEAN_ANOMALY":90.5482,"EPHEMERIS_TYPE":0,"CLASSIFICATION_TYPE":"U","NORAD_CAT_ID":61959,"ELEMENT_SET_NO":999,"REV_AT_EPOCH":7472,"BSTAR":0.0013881409,"MEAN_MOTION_DOT":0.00038184,"MEAN_MOTION_DDOT":0}]
